[
    {
        "Altitude(m)": 706805.1533241572,
        "Argument of Periapsis(deg)": 0.007973084830638947,
        "Eccentricity": 0.0,
        "Inclination(deg)": 45.0,
        "Latitude(deg)": 42.900047922188214,
        "Longitude(deg)": -83.0909619656924,
        "Mean Anomaly(deg)": -253.7449483467634,
        "RAAN(deg)": 264.99247364097926,
        "Satellite Name": "Constellation 1 1172",
        "Satellite Number": 1172,
        "Semi-Major Axis(m)": 7083131.272910544,
        "Time(s)": 133
    },
    {
        "Altitude(m)": 706801.5052963779,
        "Argument of Periapsis(deg)": 0.008033032836884352,
        "Eccentricity": 0.0,
        "Inclination(deg)": 45.0,
        "Latitude(deg)": 42.88359482774244,
        "Longitude(deg)": -83.01546502267719,
        "Mean Anomaly(deg)": -253.68424720651353,
        "RAAN(deg)": 264.9924170518137,
        "Satellite Name": "Constellation 1 1172",
        "Satellite Number": 1172,
        "Semi-Major Axis(m)": 7083131.272910544,
        "Time(s)": 134
    },
    {
        "Altitude(m)": 706797.8456290642,
        "Argument of Periapsis(deg)": 0.008092980843129758,
        "Eccentricity": 0.0,
        "Inclination(deg)": 45.0,
        "Latitude(deg)": 42.86708638596157,
        "Longitude(deg)": -82.94001041705613,
        "Mean Anomaly(deg)": -253.62354606626369,
        "RAAN(deg)": 264.99236046264815,
        "Satellite Name": "Constellation 1 1172",
        "Satellite Number": 1172,
        "Semi-Major Axis(m)": 7083131.272910544,
        "Time(s)": 135
    },
    {
        "Altitude(m)": 706794.1743439601,
        "Argument of Periapsis(deg)": 0.008152928849375162,
        "Eccentricity": 0.0,
        "Inclination(deg)": 45.0,
        "Latitude(deg)": 42.85052265765569,
        "Longitude(deg)": -82.8645982436953,
        "Mean Anomaly(deg)": -253.5628449260137,
        "RAAN(deg)": 264.99230387348257,
        "Satellite Name": "Constellation 1 1172",
        "Satellite Number": 1172,
        "Semi-Major Axis(m)": 7083131.272910544,
        "Time(s)": 136
    },
    {
        "Altitude(m)": 706790.4914628861,
        "Argument of Periapsis(deg)": 0.008212876855620568,
        "Eccentricity": 0.0,
        "Inclination(deg)": 45.0,
        "Latitude(deg)": 42.833903703755276,
        "Longitude(deg)": -82.78922859689507,
        "Mean Anomaly(deg)": -253.50214378576385,
        "RAAN(deg)": 264.992247284317,
        "Satellite Name": "Constellation 1 1172",
        "Satellite Number": 1172,
        "Semi-Major Axis(m)": 7083131.272910544,
        "Time(s)": 137
    },
    {
        "Altitude(m)": 706786.7970077276,
        "Argument of Periapsis(deg)": 0.008272824861865974,
        "Eccentricity": 0.0,
        "Inclination(deg)": 45.0,
        "Latitude(deg)": 42.817229585310464,
        "Longitude(deg)": -82.71390157039055,
        "Mean Anomaly(deg)": -253.44144264551394,
        "RAAN(deg)": 264.9921906951514,
        "Satellite Name": "Constellation 1 1172",
        "Satellite Number": 1172,
        "Semi-Major Axis(m)": 7083131.272910544,
        "Time(s)": 138
    },
    {
        "Altitude(m)": 706783.0910004409,
        "Argument of Periapsis(deg)": 0.00833277286811138,
        "Eccentricity": 0.0,
        "Inclination(deg)": 45.0,
        "Latitude(deg)": 42.80050036348977,
        "Longitude(deg)": -82.6386172573507,
        "Mean Anomaly(deg)": -253.380741505264,
        "RAAN(deg)": 264.9921341059858,
        "Satellite Name": "Constellation 1 1172",
        "Satellite Number": 1172,
        "Semi-Major Axis(m)": 7083131.272910544,
        "Time(s)": 139
    },
    {
        "Altitude(m)": 706779.373463056,
        "Argument of Periapsis(deg)": 0.008392720874356788,
        "Eccentricity": 0.0,
        "Inclination(deg)": 45.0,
        "Latitude(deg)": 42.78371609957959,
        "Longitude(deg)": -82.56337575037934,
        "Mean Anomaly(deg)": -253.32004036501414,
        "RAAN(deg)": 264.9920775168203,
        "Satellite Name": "Constellation 1 1172",
        "Satellite Number": 1172,
        "Semi-Major Axis(m)": 7083131.272910544,
        "Time(s)": 140
    },
    {
        "Altitude(m)": 706775.6444176752,
        "Argument of Periapsis(deg)": 0.008452668880602192,
        "Eccentricity": 0.0,
        "Inclination(deg)": 45.0,
        "Latitude(deg)": 42.76687685498295,
        "Longitude(deg)": -82.48817730961102,
        "Mean Anomaly(deg)": -253.25933922476423,
        "RAAN(deg)": 264.9920209276547,
        "Satellite Name": "Constellation 1 1172",
        "Satellite Number": 1172,
        "Semi-Major Axis(m)": 7083131.272910544,
        "Time(s)": 141
    },
    {
        "Altitude(m)": 706771.9038864704,
        "Argument of Periapsis(deg)": 0.008512616886847598,
        "Eccentricity": 0.0,
        "Inclination(deg)": 45.0,
        "Latitude(deg)": 42.74998269121886,
        "Longitude(deg)": -82.41302169032507,
        "Mean Anomaly(deg)": -253.19863808451439,
        "RAAN(deg)": 264.9919643384891,
        "Satellite Name": "Constellation 1 1172",
        "Satellite Number": 1172,
        "Semi-Major Axis(m)": 7083131.272910544,
        "Time(s)": 142
    },
    {
        "Altitude(m)": 706768.1518916842,
        "Argument of Periapsis(deg)": 0.008572564893093004,
        "Eccentricity": 0.0,
        "Inclination(deg)": 45.0,
        "Latitude(deg)": 42.73303366992115,
        "Longitude(deg)": -82.33790915152471,
        "Mean Anomaly(deg)": -253.13793694426442,
        "RAAN(deg)": 264.99190774932356,
        "Satellite Name": "Constellation 1 1172",
        "Satellite Number": 1172,
        "Semi-Major Axis(m)": 7083131.272910544,
        "Time(s)": 143
    },
    {
        "Altitude(m)": 706764.3884556254,
        "Argument of Periapsis(deg)": 0.008632512899338408,
        "Eccentricity": 0.0,
        "Inclination(deg)": 45.0,
        "Latitude(deg)": 42.71602985283794,
        "Longitude(deg)": -82.26283978355201,
        "Mean Anomaly(deg)": -253.07723580401455,
        "RAAN(deg)": 264.991851160158,
        "Satellite Name": "Constellation 1 1172",
        "Satellite Number": 1172,
        "Semi-Major Axis(m)": 7083131.272910544,
        "Time(s)": 144
    },
    {
        "Altitude(m)": 706760.6136006829,
        "Argument of Periapsis(deg)": 0.008692460905583814,
        "Eccentricity": 0.0,
        "Inclination(deg)": 45.0,
        "Latitude(deg)": 42.69897130183022,
        "Longitude(deg)": -82.18781367618314,
        "Mean Anomaly(deg)": -253.01653466376462,
        "RAAN(deg)": 264.99179457099245,
        "Satellite Name": "Constellation 1 1172",
        "Satellite Number": 1172,
        "Semi-Major Axis(m)": 7083131.272910544,
        "Time(s)": 145
    },
    {
        "Altitude(m)": 706756.8273493097,
        "Argument of Periapsis(deg)": 0.00875240891182922,
        "Eccentricity": 0.0,
        "Inclination(deg)": 45.0,
        "Latitude(deg)": 42.68185807887149,
        "Longitude(deg)": -82.11283091862938,
        "Mean Anomaly(deg)": -252.95583352351474,
        "RAAN(deg)": 264.9917379818269,
        "Satellite Name": "Constellation 1 1172",
        "Satellite Number": 1172,
        "Semi-Major Axis(m)": 7083131.272910544,
        "Time(s)": 146
    },
    {
        "Altitude(m)": 706753.0297240318,
        "Argument of Periapsis(deg)": 0.008812356918074627,
        "Eccentricity": 0.0,
        "Inclination(deg)": 45.0,
        "Latitude(deg)": 42.66469024604639,
        "Longitude(deg)": -82.03789159953686,
        "Mean Anomaly(deg)": -252.8951323832648,
        "RAAN(deg)": 264.99168139266123,
        "Satellite Name": "Constellation 1 1172",
        "Satellite Number": 1172,
        "Semi-Major Axis(m)": 7083131.272910544,
        "Time(s)": 147
    },
    {
        "Altitude(m)": 706749.2207474405,
        "Argument of Periapsis(deg)": 0.008872304924320031,
        "Eccentricity": 0.0,
        "Inclination(deg)": 45.0,
        "Latitude(deg)": 42.647467865550134,
        "Longitude(deg)": -81.96299597508347,
        "Mean Anomaly(deg)": -252.8344312430149,
        "RAAN(deg)": 264.9916248034957,
        "Satellite Name": "Constellation 1 1172",
        "Satellite Number": 1172,
        "Semi-Major Axis(m)": 7083131.272910544,
        "Time(s)": 148
    },
    {
        "Altitude(m)": 706745.4004422043,
        "Argument of Periapsis(deg)": 0.008932252930565437,
        "Eccentricity": 0.0,
        "Inclination(deg)": 45.0,
        "Latitude(deg)": 42.630190999687485,
        "Longitude(deg)": -81.88814379659217,
        "Mean Anomaly(deg)": -252.77373010276506,
        "RAAN(deg)": 264.99156821433013,
        "Satellite Name": "Constellation 1 1172",
        "Satellite Number": 1172,
        "Semi-Major Axis(m)": 7083131.272910544,
        "Time(s)": 149
    },
    {
        "Altitude(m)": 706741.5688310578,
        "Argument of Periapsis(deg)": 0.008992200936810843,
        "Eccentricity": 0.0,
        "Inclination(deg)": 45.0,
        "Latitude(deg)": 42.61285971087176,
        "Longitude(deg)": -81.81333531911172,
        "Mean Anomaly(deg)": -252.71302896251515,
        "RAAN(deg)": 264.9915116251646,
        "Satellite Name": "Constellation 1 1172",
        "Satellite Number": 1172,
        "Semi-Major Axis(m)": 7083131.272910544,
        "Time(s)": 150
    },
    {
        "Altitude(m)": 706737.7259368082,
        "Argument of Periapsis(deg)": 0.009052148943056249,
        "Eccentricity": 0.0,
        "Inclination(deg)": 45.0,
        "Latitude(deg)": 42.59547406162408,
        "Longitude(deg)": -81.73857062902944,
        "Mean Anomaly(deg)": -252.65232782226528,
        "RAAN(deg)": 264.991455035999,
        "Satellite Name": "Constellation 1 1172",
        "Satellite Number": 1172,
        "Semi-Major Axis(m)": 7083131.272910544,
        "Time(s)": 151
    }
]